{"fetched_at":"2026-07-21T07:06:55.004Z","source":"https://celestrak.org/NORAD/elements/gp.php?NAME=HULIANWANG&FORMAT=JSON","constellation":"guowang","records":[{"OBJECT_NAME":"HULIANWANG DIGUI-92","OBJECT_ID":"2025-231F","EPOCH":"2026-07-20T21:17:37.881600","CLASSIFICATION_TYPE":"U","MEAN_MOTION":13.29329135,"ECCENTRICITY":0.00005006,"INCLINATION":50.0063,"RA_OF_ASC_NODE":54.7885,"ARG_OF_PERICENTER":1.8044,"MEAN_ANOMALY":358.283,"EPHEMERIS_TYPE":0,"NORAD_CAT_ID":66000,"ELEMENT_SET_NO":999,"REV_AT_EPOCH":3737,"BSTAR":0.000024550323,"MEAN_MOTION_DOT":-0.00000113,"MEAN_MOTION_DDOT":0},{"OBJECT_NAME":"HULIANWANG DIGUI-93","OBJECT_ID":"2025-231G","EPOCH":"2026-07-20T22:41:47.328288","CLASSIFICATION_TYPE":"U","MEAN_MOTION":13.29328191,"ECCENTRICITY":0.0000501,"INCLINATION":50.0029,"RA_OF_ASC_NODE":54.3653,"ARG_OF_PERICENTER":356.8891,"MEAN_ANOMALY":3.1978,"EPHEMERIS_TYPE":0,"NORAD_CAT_ID":66001,"ELEMENT_SET_NO":999,"REV_AT_EPOCH":3738,"BSTAR":0.000030675657,"MEAN_MOTION_DOT":-0.0000011,"MEAN_MOTION_DDOT":0},{"OBJECT_NAME":"HULIANWANG DIGUI-94","OBJECT_ID":"2025-231H","EPOCH":"2026-07-20T21:05:47.765184","CLASSIFICATION_TYPE":"U","MEAN_MOTION":13.29326146,"ECCENTRICITY":0.00005314,"INCLINATION":50.0067,"RA_OF_ASC_NODE":54.7636,"ARG_OF_PERICENTER":358.2931,"MEAN_ANOMALY":1.7939,"EPHEMERIS_TYPE":0,"NORAD_CAT_ID":66002,"ELEMENT_SET_NO":999,"REV_AT_EPOCH":3737,"BSTAR":0.000032214413,"MEAN_MOTION_DOT":-0.00000109,"MEAN_MOTION_DDOT":0},{"OBJECT_NAME":"HULIANWANG DIGUI-95","OBJECT_ID":"2025-231J","EPOCH":"2026-07-20T20:41:32.527392","CLASSIFICATION_TYPE":"U","MEAN_MOTION":13.29332703,"ECCENTRICITY":0.00004672,"INCLINATION":50.0042,"RA_OF_ASC_NODE":54.6177,"ARG_OF_PERICENTER":3.1226,"MEAN_ANOMALY":356.9649,"EPHEMERIS_TYPE":0,"NORAD_CAT_ID":66003,"ELEMENT_SET_NO":999,"REV_AT_EPOCH":3737,"BSTAR":0.000038665875,"MEAN_MOTION_DOT":-0.00000106,"MEAN_MOTION_DDOT":0},{"OBJECT_NAME":"HULIANWANG DIGUI-96","OBJECT_ID":"2025-258A","EPOCH":"2026-07-20T15:50:55.888512","CLASSIFICATION_TYPE":"U","MEAN_MOTION":13.29327511,"ECCENTRICITY":0.00008234,"INCLINATION":50.0024,"RA_OF_ASC_NODE":175.5851,"ARG_OF_PERICENTER":269.9091,"MEAN_ANOMALY":90.1687,"EPHEMERIS_TYPE":0,"NORAD_CAT_ID":66412,"ELEMENT_SET_NO":999,"REV_AT_EPOCH":3418,"BSTAR":0.000069074462,"MEAN_MOTION_DOT":-9.2e-7,"MEAN_MOTION_DDOT":0},{"OBJECT_NAME":"HULIANWANG DIGUI-97","OBJECT_ID":"2025-258B","EPOCH":"2026-07-20T22:03:45.583776","CLASSIFICATION_TYPE":"U","MEAN_MOTION":13.29326994,"ECCENTRICITY":0.00009635,"INCLINATION":49.9988,"RA_OF_ASC_NODE":174.8797,"ARG_OF_PERICENTER":269.7959,"MEAN_ANOMALY":90.2803,"EPHEMERIS_TYPE":0,"NORAD_CAT_ID":66413,"ELEMENT_SET_NO":999,"REV_AT_EPOCH":3421,"BSTAR":0.000071938986,"MEAN_MOTION_DOT":-9.1e-7,"MEAN_MOTION_DDOT":0},{"OBJECT_NAME":"HULIANWANG DIGUI-98","OBJECT_ID":"2025-258C","EPOCH":"2026-07-20T14:38:55.701888","CLASSIFICATION_TYPE":"U","MEAN_MOTION":13.29323475,"ECCENTRICITY":0.00010487,"INCLINATION":50.0027,"RA_OF_ASC_NODE":175.9957,"ARG_OF_PERICENTER":264.1347,"MEAN_ANOMALY":95.9406,"EPHEMERIS_TYPE":0,"NORAD_CAT_ID":66414,"ELEMENT_SET_NO":999,"REV_AT_EPOCH":3417,"BSTAR":0.000066967597,"MEAN_MOTION_DOT":-9.3e-7,"MEAN_MOTION_DDOT":0},{"OBJECT_NAME":"HULIANWANG DIGUI-99","OBJECT_ID":"2025-258D","EPOCH":"2026-07-20T22:51:58.961664","CLASSIFICATION_TYPE":"U","MEAN_MOTION":13.29326798,"ECCENTRICITY":0.00009357,"INCLINATION":50.0025,"RA_OF_ASC_NODE":174.4656,"ARG_OF_PERICENTER":273.506,"MEAN_ANOMALY":86.5705,"EPHEMERIS_TYPE":0,"NORAD_CAT_ID":66415,"ELEMENT_SET_NO":999,"REV_AT_EPOCH":3421,"BSTAR":0.000067065079,"MEAN_MOTION_DOT":-9.3e-7,"MEAN_MOTION_DDOT":0},{"OBJECT_NAME":"HULIANWANG DIGUI-100","OBJECT_ID":"2025-258E","EPOCH":"2026-07-20T16:15:08.673408","CLASSIFICATION_TYPE":"U","MEAN_MOTION":13.29323515,"ECCENTRICITY":0.00009927,"INCLINATION":50.0027,"RA_OF_ASC_NODE":175.6868,"ARG_OF_PERICENTER":276.6587,"MEAN_ANOMALY":83.4172,"EPHEMERIS_TYPE":0,"NORAD_CAT_ID":66416,"ELEMENT_SET_NO":999,"REV_AT_EPOCH":3419,"BSTAR":0.000070031863,"MEAN_MOTION_DOT":-9.2e-7,"MEAN_MOTION_DDOT":0},{"OBJECT_NAME":"HULIANWANG DIGUI-101","OBJECT_ID":"2025-258F","EPOCH":"2026-07-20T08:49:47.762688","CLASSIFICATION_TYPE":"U","MEAN_MOTION":13.29327436,"ECCENTRICITY":0.00008185,"INCLINATION":49.9976,"RA_OF_ASC_NODE":176.6114,"ARG_OF_PERICENTER":271.3811,"MEAN_ANOMALY":88.6967,"EPHEMERIS_TYPE":0,"NORAD_CAT_ID":66417,"ELEMENT_SET_NO":999,"REV_AT_EPOCH":3415,"BSTAR":0.000084036389,"MEAN_MOTION_DOT":-8.5e-7,"MEAN_MOTION_DDOT":0},{"OBJECT_NAME":"HULIANWANG DIGUI-102","OBJECT_ID":"2025-258G","EPOCH":"2026-07-20T08:13:55.700256","CLASSIFICATION_TYPE":"U","MEAN_MOTION":13.29323414,"ECCENTRICITY":0.00008329,"INCLINATION":49.9992,"RA_OF_ASC_NODE":176.5068,"ARG_OF_PERICENTER":267.5817,"MEAN_ANOMALY":92.4959,"EPHEMERIS_TYPE":0,"NORAD_CAT_ID":66418,"ELEMENT_SET_NO":999,"REV_AT_EPOCH":3414,"BSTAR":0.000054434051,"MEAN_MOTION_DOT":-9.9e-7,"MEAN_MOTION_DDOT":0},{"OBJECT_NAME":"HULIANWANG DIGUI-103","OBJECT_ID":"2025-258H","EPOCH":"2026-07-20T15:14:43.919520","CLASSIFICATION_TYPE":"U","MEAN_MOTION":13.29326568,"ECCENTRICITY":0.00009688,"INCLINATION":49.9986,"RA_OF_ASC_NODE":175.3691,"ARG_OF_PERICENTER":277.6656,"MEAN_ANOMALY":82.4106,"EPHEMERIS_TYPE":0,"NORAD_CAT_ID":66419,"ELEMENT_SET_NO":999,"REV_AT_EPOCH":3418,"BSTAR":0.000051870086,"MEAN_MOTION_DOT":-0.000001,"MEAN_MOTION_DDOT":0},{"OBJECT_NAME":"HULIANWANG DIGUI-104","OBJECT_ID":"2025-258J","EPOCH":"2026-07-20T07:49:43.845024","CLASSIFICATION_TYPE":"U","MEAN_MOTION":13.29326567,"ECCENTRICITY":0.0000887,"INCLINATION":50.0002,"RA_OF_ASC_NODE":176.4445,"ARG_OF_PERICENTER":266.828,"MEAN_ANOMALY":93.249,"EPHEMERIS_TYPE":0,"NORAD_CAT_ID":66420,"ELEMENT_SET_NO":999,"REV_AT_EPOCH":3413,"BSTAR":0.000053454114,"MEAN_MOTION_DOT":-9.9e-7,"MEAN_MOTION_DDOT":0},{"OBJECT_NAME":"HULIANWANG DIGUI-105","OBJECT_ID":"2025-285A","EPOCH":"2026-07-20T20:33:26.224128","CLASSIFICATION_TYPE":"U","MEAN_MOTION":13.29322775,"ECCENTRICITY":0.00009259,"INCLINATION":50.0063,"RA_OF_ASC_NODE":25.4673,"ARG_OF_PERICENTER":54.432,"MEAN_ANOMALY":305.6639,"EPHEMERIS_TYPE":0,"NORAD_CAT_ID":66915,"ELEMENT_SET_NO":999,"REV_AT_EPOCH":3053,"BSTAR":0.00000588414,"MEAN_MOTION_DOT":-0.00000121,"MEAN_MOTION_DDOT":0},{"OBJECT_NAME":"HULIANWANG DIGUI-106","OBJECT_ID":"2025-285B","EPOCH":"2026-07-20T18:33:04.951872","CLASSIFICATION_TYPE":"U","MEAN_MOTION":13.2932325,"ECCENTRICITY":0.00009494,"INCLINATION":50.0074,"RA_OF_ASC_NODE":25.7143,"ARG_OF_PERICENTER":52.6096,"MEAN_ANOMALY":307.4863,"EPHEMERIS_TYPE":0,"NORAD_CAT_ID":66916,"ELEMENT_SET_NO":999,"REV_AT_EPOCH":3052,"BSTAR":0.000020403355,"MEAN_MOTION_DOT":-0.00000115,"MEAN_MOTION_DDOT":0},{"OBJECT_NAME":"HULIANWANG DIGUI-107","OBJECT_ID":"2025-285C","EPOCH":"2026-07-20T18:20:50.239968","CLASSIFICATION_TYPE":"U","MEAN_MOTION":13.2932618,"ECCENTRICITY":0.00009326,"INCLINATION":50.0041,"RA_OF_ASC_NODE":25.6067,"ARG_OF_PERICENTER":57.2764,"MEAN_ANOMALY":302.8198,"EPHEMERIS_TYPE":0,"NORAD_CAT_ID":66917,"ELEMENT_SET_NO":999,"REV_AT_EPOCH":3052,"BSTAR":0.000008218672,"MEAN_MOTION_DOT":-0.0000012,"MEAN_MOTION_DDOT":0}]}
