HULIANWANG DIGUI-92     
1 66000U 25231F   26201.88724400 -.00000113  00000+0  24550-4 0  9994
2 66000  50.0063  54.7885 0000500   1.8044 358.2830 13.29329135 37374
HULIANWANG DIGUI-93     
1 66001U 25231G   26201.94568667 -.00000110  00000+0  30676-4 0  9996
2 66001  50.0029  54.3653 0000501 356.8891   3.1978 13.29328191 37381
HULIANWANG DIGUI-94     
1 66002U 25231H   26201.87902506 -.00000109  00000+0  32214-4 0  9991
2 66002  50.0067  54.7636 0000531 358.2931   1.7939 13.29326146 37371
HULIANWANG DIGUI-95     
1 66003U 25231J   26201.86218203 -.00000106  00000+0  38666-4 0  9999
2 66003  50.0042  54.6177 0000467   3.1226 356.9649 13.29332703 37374
HULIANWANG DIGUI-96     
1 66412U 25258A   26201.66036908 -.00000092  00000+0  69074-4 0  9991
2 66412  50.0024 175.5851 0000823 269.9091  90.1687 13.29327511 34184
HULIANWANG DIGUI-97     
1 66413U 25258B   26201.91927759 -.00000091  00000+0  71939-4 0  9995
2 66413  49.9988 174.8797 0000963 269.7959  90.2803 13.29326994 34217
HULIANWANG DIGUI-98     
1 66414U 25258C   26201.61036692 -.00000093  00000+0  66968-4 0  9998
2 66414  50.0027 175.9957 0001048 264.1347  95.9406 13.29323475 34177
HULIANWANG DIGUI-99     
1 66415U 25258D   26201.95276576 -.00000093  00000+0  67065-4 0  9992
2 66415  50.0025 174.4656 0000935 273.5060  86.5705 13.29326798 34210
HULIANWANG DIGUI-100    
1 66416U 25258E   26201.67718372 -.00000092  00000+0  70032-4 0  9994
2 66416  50.0027 175.6868 0000992 276.6587  83.4172 13.29323515 34197
HULIANWANG DIGUI-101    
1 66417U 25258F   26201.36791392 -.00000085  00000+0  84036-4 0  9995
2 66417  49.9976 176.6114 0000818 271.3811  88.6967 13.29327436 34153
HULIANWANG DIGUI-102    
1 66418U 25258G   26201.34300579 -.00000099  00000+0  54434-4 0  9991
2 66418  49.9992 176.5068 0000832 267.5817  92.4959 13.29323414 34143
HULIANWANG DIGUI-103    
1 66419U 25258H   26201.63523055 -.00000100  00000+0  51870-4 0  9994
2 66419  49.9986 175.3691 0000968 277.6656  82.4106 13.29326568 34189
HULIANWANG DIGUI-104    
1 66420U 25258J   26201.32620191 -.00000099  00000+0  53454-4 0  9998
2 66420  50.0002 176.4445 0000887 266.8280  93.2490 13.29326567 34135
HULIANWANG DIGUI-105    
1 66915U 25285A   26201.85655352 -.00000121  00000+0  58841-5 0  9994
2 66915  50.0063  25.4673 0000925  54.4320 305.6639 13.29322775 30538
HULIANWANG DIGUI-106    
1 66916U 25285B   26201.77297398 -.00000115  00000+0  20403-4 0  9993
2 66916  50.0074  25.7143 0000949  52.6096 307.4863 13.29323250 30529
HULIANWANG DIGUI-107    
1 66917U 25285C   26201.76447037 -.00000120  00000+0  82187-5 0  9994
2 66917  50.0041  25.6067 0000932  57.2764 302.8198 13.29326180 30528
